{
    "links": {
        "self": "http://www.neowsapp.com/rest/v1/neo/3601409?api_key=iIulBulltgU6a56xZRHN4H3l9WmuAYTsLGpBGhQ2"
    },
    "id": "3601409",
    "neo_reference_id": "3601409",
    "name": "(2012 FM)",
    "designation": "2012 FM",
    "nasa_jpl_url": "http://ssd.jpl.nasa.gov/sbdb.cgi?sstr=3601409",
    "absolute_magnitude_h": 26.1,
    "estimated_diameter": {
        "kilometers": {
            "estimated_diameter_min": 0.0160160338,
            "estimated_diameter_max": 0.0358129403
        },
        "meters": {
            "estimated_diameter_min": 16.0160337979,
            "estimated_diameter_max": 35.8129403019
        },
        "miles": {
            "estimated_diameter_min": 0.0099518989,
            "estimated_diameter_max": 0.0222531225
        },
        "feet": {
            "estimated_diameter_min": 52.5460443254,
            "estimated_diameter_max": 117.4965270602
        }
    },
    "is_potentially_hazardous_asteroid": false,
    "close_approach_data": [
        {
            "close_approach_date": "2007-01-19",
            "close_approach_date_full": "2007-Jan-19 12:56",
            "epoch_date_close_approach": 1169211360000,
            "relative_velocity": {
                "kilometers_per_second": "14.6303796605",
                "kilometers_per_hour": "52669.3667778529",
                "miles_per_hour": "32726.6962626053"
            },
            "miss_distance": {
                "astronomical": "0.0617460019",
                "lunar": "24.0191947391",
                "kilometers": "9237070.365255953",
                "miles": "5739649.3738920314"
            },
            "orbiting_body": "Mars"
        },
        {
            "close_approach_date": "2012-03-18",
            "close_approach_date_full": "2012-Mar-18 01:03",
            "epoch_date_close_approach": 1332032580000,
            "relative_velocity": {
                "kilometers_per_second": "6.7612163548",
                "kilometers_per_hour": "24340.3788774464",
                "miles_per_hour": "15124.1648641555"
            },
            "miss_distance": {
                "astronomical": "0.0212065821",
                "lunar": "8.2493604369",
                "kilometers": "3172459.512140127",
                "miles": "1971274.9316106726"
            },
            "orbiting_body": "Earth"
        }
    ],
    "orbital_data": {
        "orbit_id": "6",
        "orbit_determination_date": "2017-04-06 08:50:28",
        "first_observation_date": "2012-03-17",
        "last_observation_date": "2012-03-22",
        "data_arc_in_days": 5,
        "observations_used": 41,
        "orbit_uncertainty": "7",
        "minimum_orbit_intersection": ".0205983",
        "jupiter_tisserand_invariant": "3.746",
        "epoch_osculation": "2459000.5",
        "eccentricity": ".4848344318241713",
        "semi_major_axis": "1.942293684591843",
        "inclination": "3.215242167470597",
        "ascending_node_longitude": "11.33084601982642",
        "orbital_period": "988.7142053959392",
        "perihelion_distance": "1.000602829587081",
        "perihelion_argument": "151.4173779169481",
        "aphelion_distance": "2.883984539596606",
        "perihelion_time": "2458957.611227796623",
        "mean_anomaly": "15.61619920999579",
        "mean_motion": ".364109262348299",
        "equinox": "J2000",
        "orbit_class": {
            "orbit_class_type": "APO",
            "orbit_class_description": "Near-Earth asteroid orbits which cross the Earth’s orbit similar to that of 1862 Apollo",
            "orbit_class_range": "a (semi-major axis) > 1.0 AU; q (perihelion) < 1.017 AU"
        }
    },
    "is_sentry_object": false
}